PLEIADES NEO 3          
1 48268U 21034A   26193.51028332  .00001219  00000+0  16152-3 0  9993
2 48268  97.8943 267.9127 0001403  95.0892 265.0481 14.81680985281406
PLEIADES NEO 4          
1 49070U 21073E   26193.47651395  .00000109  00000+0  20433-4 0  9999
2 49070  97.8941 267.8754 0001329  93.2615 266.8750 14.81673712265119
