{"fetched_at":"2026-07-12T17:32:58.780Z","source":"https://celestrak.org/NORAD/elements/gp.php?NAME=PLEIADES&FORMAT=JSON","constellation":"pleiades-neo","records":[{"OBJECT_NAME":"PLEIADES NEO 3","OBJECT_ID":"2021-034A","EPOCH":"2026-07-12T12:14:48.478848","CLASSIFICATION_TYPE":"U","MEAN_MOTION":14.81680985,"ECCENTRICITY":0.0001403,"INCLINATION":97.8943,"RA_OF_ASC_NODE":267.9127,"ARG_OF_PERICENTER":95.0892,"MEAN_ANOMALY":265.0481,"EPHEMERIS_TYPE":0,"NORAD_CAT_ID":48268,"ELEMENT_SET_NO":999,"REV_AT_EPOCH":28140,"BSTAR":0.00016152,"MEAN_MOTION_DOT":0.00001219,"MEAN_MOTION_DDOT":0},{"OBJECT_NAME":"PLEIADES NEO 4","OBJECT_ID":"2021-073E","EPOCH":"2026-07-12T11:26:10.805280","CLASSIFICATION_TYPE":"U","MEAN_MOTION":14.81673712,"ECCENTRICITY":0.0001329,"INCLINATION":97.8941,"RA_OF_ASC_NODE":267.8754,"ARG_OF_PERICENTER":93.2615,"MEAN_ANOMALY":266.875,"EPHEMERIS_TYPE":0,"NORAD_CAT_ID":49070,"ELEMENT_SET_NO":999,"REV_AT_EPOCH":26511,"BSTAR":0.000020433,"MEAN_MOTION_DOT":0.00000109,"MEAN_MOTION_DDOT":0}]}
